[{"OBJECT_NAME":"COSMOS 2572","OBJECT_ID":"2023-182A","EPOCH":"2026-03-09T13:27:58.906080","MEAN_MOTION":15.90100186,"ECCENTRICITY":0.00176756,"INCLINATION":96.6789,"RA_OF_ASC_NODE":174.2379,"ARG_OF_PERICENTER":207.9935,"MEAN_ANOMALY":152.0391,"EPHEMERIS_TYPE":0,"CLASSIFICATION_TYPE":"U","NORAD_CAT_ID":58435,"ELEMENT_SET_NO":999,"REV_AT_EPOCH":13262,"BSTAR":0.00022334342,"MEAN_MOTION_DOT":0.00067086,"MEAN_MOTION_DDOT":3.470467e-6},{"OBJECT_NAME":"STARLINK-36651","OBJECT_ID":"2026-033V","EPOCH":"2026-03-09T22:24:02.501856","MEAN_MOTION":15.82145228,"ECCENTRICITY":0.00021081,"INCLINATION":42.998,"RA_OF_ASC_NODE":269.838,"ARG_OF_PERICENTER":262.4734,"MEAN_ANOMALY":97.5898,"EPHEMERIS_TYPE":0,"CLASSIFICATION_TYPE":"U","NORAD_CAT_ID":67840,"ELEMENT_SET_NO":999,"REV_AT_EPOCH":466,"BSTAR":0.0017818753,"MEAN_MOTION_DOT":0.0039466,"MEAN_MOTION_DDOT":0}]
